0 TITAN 3C TRANSTAGE DEB
1 19595U 65108AB  13282.10158659  .00001837  00000-0  16235-2 0  6018
2 19595 026.8484 186.6416 6099129 125.2265 003.9620 03.80683565262693
0 TITAN 3C TRANSTAGE DEB
1 19595U 65108AB  13285.99675256  .00002091  00000-0  19917-2 0  6029
2 19595 026.8668 183.8518 6097412 129.8350 302.2019 03.80696441262848
0 TITAN 3C TRANSTAGE DEB
1 19595U 65108AB  13286.03777128  .00001743  00000-0  16485-2 0  6037
2 19595 026.8513 183.9348 6098233 129.7275 358.4189 03.80700448262840
0 TITAN 3C TRANSTAGE DEB
1 19595U 65108AB  13287.09087141  .00001943  00000-0  18074-2 0  6042
2 19595 026.8547 183.2051 6098115 130.9589 001.7076 03.80703920262887
0 TITAN 3C TRANSTAGE DEB
1 19595U 65108AB  13287.90111839  .00002330  00000-0  21398-2 0  6059
2 19595 026.8526 182.6569 6097748 131.8541 032.1699 03.80710854262917
0 TITAN 3C TRANSTAGE DEB
1 19595U 65108AB  13292.85881083  .00002359  00000-0  21160-2 0  6063
2 19595 026.8570 179.2533 6096705 137.5136 347.1196 03.80730660263104
0 TITAN 3C TRANSTAGE DEB
1 19595U 65108AB  13293.94042115  .00001891  00000-0  17191-2 0  6079
2 19595 026.8583 178.5115 6096491 138.7459 029.5949 03.80737600263141
0 TITAN 3C TRANSTAGE DEB
1 19595U 65108AB  13296.01841553  .00001770  00000-0  16986-2 0  6081
2 19595 026.8604 177.0865 6095980 141.1172 357.8080 03.80747718263226
